{
  "type": "FeatureCollection",
  "features": [
    {
      "type": "Feature",
      "properties": {
        "norad_id": 30040,
        "name": "FENGYUN 1C DEB",
        "group": "fengyun-1c-debris",
        "lat": 38.83052716264468,
        "lon": -169.51251272006954,
        "alt_km": 787.8665553839764,
        "timestamp": "2025-12-13T10:41:26.039340+00:00",
        "meta_object_name": "FENGYUN 1C DEB",
        "meta_object_id": "1999-025NR",
        "meta_epoch": "2025-12-13T00:17:24.358272",
        "meta_mean_motion": 14.37123449,
        "meta_eccentricity": 0.00323876,
        "meta_inclination": 98.2342,
        "meta_ra_of_asc_node": 3.3795,
        "meta_arg_of_pericenter": 312.2165,
        "meta_mean_anomaly": 107.7302,
        "meta_ephemeris_type": 0,
        "meta_classification_type": "U",
        "meta_norad_cat_id": 30040,
        "meta_element_set_no": 999,
        "meta_rev_at_epoch": 97932,
        "meta_bstar": 0.0024331197,
        "meta_mean_motion_dot": 7.239e-05,
        "meta_mean_motion_ddot": 0,
        "tle_line1": "1 30040U 99025NR  25347.01208748  .00007239  00000+0  24331-2 0  9998",
        "tle_line2": "2 30040  98.2342   3.3795 0032387 312.2165 107.7302 14.37123449979325"
      },
      "geometry": {
        "type": "Point",
        "coordinates": [
          -169.51251272006954,
          38.83052716264468
        ]
      }
    },
    {
      "type": "Feature",
      "properties": {
        "norad_id": 30041,
        "name": "FENGYUN 1C DEB",
        "group": "fengyun-1c-debris",
        "lat": 22.52074259399959,
        "lon": 90.01736715114578,
        "alt_km": 872.6445908683281,
        "timestamp": "2025-12-13T10:41:26.039350+00:00",
        "meta_object_name": "FENGYUN 1C DEB",
        "meta_object_id": "1999-025NS",
        "meta_epoch": "2025-12-12T19:52:58.664928",
        "meta_mean_motion": 14.13185972,
        "meta_eccentricity": 0.00348155,
        "meta_inclination": 99.467,
        "meta_ra_of_asc_node": 93.3324,
        "meta_arg_of_pericenter": 216.862,
        "meta_mean_anomaly": 268.8364,
        "meta_ephemeris_type": 0,
        "meta_classification_type": "U",
        "meta_norad_cat_id": 30041,
        "meta_element_set_no": 999,
        "meta_rev_at_epoch": 97288,
        "meta_bstar": 0.00075262352,
        "meta_mean_motion_dot": 1.367e-05,
        "meta_mean_motion_ddot": 0,
        "tle_line1": "1 30041U 99025NS  25346.82845677  .00001367  00000+0  75262-3 0  9991",
        "tle_line2": "2 30041  99.4670  93.3324 0034815 216.8620 268.8364 14.13185972972887"
      },
      "geometry": {
        "type": "Point",
        "coordinates": [
          90.01736715114578,
          22.52074259399959
        ]
      }
    },
    {
      "type": "Feature",
      "properties": {
        "norad_id": 30043,
        "name": "FENGYUN 1C DEB",
        "group": "fengyun-1c-debris",
        "lat": 57.8040044668681,
        "lon": 71.43916324638433,
        "alt_km": 732.8236791702639,
        "timestamp": "2025-12-13T10:41:26.039361+00:00",
        "meta_object_name": "FENGYUN 1C DEB",
        "meta_object_id": "1999-025NU",
        "meta_epoch": "2025-12-12T17:32:38.279904",
        "meta_mean_motion": 14.23570908,
        "meta_eccentricity": 0.02837119,
        "meta_inclination": 98.6268,
        "meta_ra_of_asc_node": 84.6896,
        "meta_arg_of_pericenter": 130.995,
        "meta_mean_anomaly": 231.6144,
        "meta_ephemeris_type": 0,
        "meta_classification_type": "U",
        "meta_norad_cat_id": 30043,
        "meta_element_set_no": 999,
        "meta_rev_at_epoch": 97345,
        "meta_bstar": 0.001469646,
        "meta_mean_motion_dot": 5.03e-05,
        "meta_mean_motion_ddot": 0,
        "tle_line1": "1 30043U 99025NU  25346.73099861  .00005030  00000+0  14696-2 0  9993",
        "tle_line2": "2 30043  98.6268  84.6896 0283711 130.9950 231.6144 14.23570908973459"
      },
      "geometry": {
        "type": "Point",
        "coordinates": [
          71.43916324638433,
          57.8040044668681
        ]
      }
    },
    {
      "type": "Feature",
      "properties": {
        "norad_id": 30044,
        "name": "FENGYUN 1C DEB",
        "group": "fengyun-1c-debris",
        "lat": 13.563529935469642,
        "lon": -94.27383421189842,
        "alt_km": 773.8322839707143,
        "timestamp": "2025-12-13T10:41:26.039371+00:00",
        "meta_object_name": "FENGYUN 1C DEB",
        "meta_object_id": "1999-025NV",
        "meta_epoch": "2025-12-12T18:04:21.597600",
        "meta_mean_motion": 14.5066278,
        "meta_eccentricity": 0.0079439,
        "meta_inclination": 98.2107,
        "meta_ra_of_asc_node": 267.0469,
        "meta_arg_of_pericenter": 167.1629,
        "meta_mean_anomaly": 193.1613,
        "meta_ephemeris_type": 0,
        "meta_classification_type": "U",
        "meta_norad_cat_id": 30044,
        "meta_element_set_no": 999,
        "meta_rev_at_epoch": 98039,
        "meta_bstar": 0.0024261811,
        "meta_mean_motion_dot": 9.889e-05,
        "meta_mean_motion_ddot": 0,
        "tle_line1": "1 30044U 99025NV  25346.75302775  .00009889  00000+0  24262-2 0  9993",
        "tle_line2": "2 30044  98.2107 267.0469 0079439 167.1629 193.1613 14.50662780980390"
      },
      "geometry": {
        "type": "Point",
        "coordinates": [
          -94.27383421189842,
          13.563529935469642
        ]
      }
    },
    {
      "type": "Feature",
      "properties": {
        "norad_id": 30045,
        "name": "FENGYUN 1C DEB",
        "group": "fengyun-1c-debris",
        "lat": 73.93911670396655,
        "lon": -122.7916997700778,
        "alt_km": 745.1323226355462,
        "timestamp": "2025-12-13T10:41:26.039381+00:00",
        "meta_object_name": "FENGYUN 1C DEB",
        "meta_object_id": "1999-025NW",
        "meta_epoch": "2025-12-11T01:04:05.890368",
        "meta_mean_motion": 14.21577796,
        "meta_eccentricity": 0.00949528,
        "meta_inclination": 99.1788,
        "meta_ra_of_asc_node": 20.5446,
        "meta_arg_of_pericenter": 118.1385,
        "meta_mean_anomaly": 304.7421,
        "meta_ephemeris_type": 0,
        "meta_classification_type": "U",
        "meta_norad_cat_id": 30045,
        "meta_element_set_no": 999,
        "meta_rev_at_epoch": 96664,
        "meta_bstar": 0.0028777955,
        "meta_mean_motion_dot": 6.562e-05,
        "meta_mean_motion_ddot": 0,
        "tle_line1": "1 30045U 99025NW  25345.04451262  .00006562  00000+0  28778-2 0  9992",
        "tle_line2": "2 30045  99.1788  20.5446 0094952 118.1385 304.7421 14.21577796966644"
      },
      "geometry": {
        "type": "Point",
        "coordinates": [
          -122.7916997700778,
          73.93911670396655
        ]
      }
    },
    {
      "type": "Feature",
      "properties": {
        "norad_id": 30047,
        "name": "FENGYUN 1C DEB",
        "group": "fengyun-1c-debris",
        "lat": -27.451869640371967,
        "lon": 149.70483268934083,
        "alt_km": 829.1350552314343,
        "timestamp": "2025-12-13T10:41:26.039392+00:00",
        "meta_object_name": "FENGYUN 1C DEB",
        "meta_object_id": "1999-025NY",
        "meta_epoch": "2025-12-12T23:21:48.976128",
        "meta_mean_motion": 13.94355898,
        "meta_eccentricity": 0.01256535,
        "meta_inclination": 99.9193,
        "meta_ra_of_asc_node": 143.9827,
        "meta_arg_of_pericenter": 322.1896,
        "meta_mean_anomaly": 161.9148,
        "meta_ephemeris_type": 0,
        "meta_classification_type": "U",
        "meta_norad_cat_id": 30047,
        "meta_element_set_no": 999,
        "meta_rev_at_epoch": 95919,
        "meta_bstar": 0.00094372566,
        "meta_mean_motion_dot": 1.29e-05,
        "meta_mean_motion_ddot": 0,
        "tle_line1": "1 30047U 99025NY  25346.97348352  .00001290  00000+0  94373-3 0  9990",
        "tle_line2": "2 30047  99.9193 143.9827 0125653 322.1896 161.9148 13.94355898959191"
      },
      "geometry": {
        "type": "Point",
        "coordinates": [
          149.70483268934083,
          -27.451869640371967
        ]
      }
    },
    {
      "type": "Feature",
      "properties": {
        "norad_id": 30048,
        "name": "FENGYUN 1C DEB",
        "group": "fengyun-1c-debris",
        "lat": -68.03297716506134,
        "lon": -124.56498019680892,
        "alt_km": 877.336350722725,
        "timestamp": "2025-12-13T10:41:26.039402+00:00",
        "meta_object_name": "FENGYUN 1C DEB",
        "meta_object_id": "1999-025NZ",
        "meta_epoch": "2025-12-12T14:25:21.109728",
        "meta_mean_motion": 13.7989343,
        "meta_eccentricity": 0.0186248,
        "meta_inclination": 98.6665,
        "meta_ra_of_asc_node": 212.4438,
        "meta_arg_of_pericenter": 245.3065,
        "meta_mean_anomaly": 170.5646,
        "meta_ephemeris_type": 0,
        "meta_classification_type": "U",
        "meta_norad_cat_id": 30048,
        "meta_element_set_no": 999,
        "meta_rev_at_epoch": 95124,
        "meta_bstar": 0.00039204574,
        "meta_mean_motion_dot": 4.23e-06,
        "meta_mean_motion_ddot": 0,
        "tle_line1": "1 30048U 99025NZ  25346.60093877  .00000423  00000+0  39205-3 0  9990",
        "tle_line2": "2 30048  98.6665 212.4438 0186248 245.3065 170.5646 13.79893430951242"
      },
      "geometry": {
        "type": "Point",
        "coordinates": [
          -124.56498019680892,
          -68.03297716506134
        ]
      }
    }
  ]
}